CCSDS_OMM_VERS = 2.0
CREATION_DATE  = 
ORIGINATOR     = 

OBJECT_NAME    = GUOWANG GROUP 20 OBJECT J
OBJECT_ID      = 2026-047J
CENTER_NAME    = EARTH
REF_FRAME      = TEME
TIME_SYSTEM    = UTC
MEAN_ELEMENT_THEORY = SGP/SGP4

EPOCH          = 2026-04-02T16:56:00.731328
MEAN_MOTION    = 13.87066479
ECCENTRICITY   = .00006698
INCLINATION    = 50.0058
RA_OF_ASC_NODE = 333.1317
ARG_OF_PERICENTER = 182.6269
MEAN_ANOMALY   = 177.4625

EPHEMERIS_TYPE = 0
CLASSIFICATION_TYPE = U
NORAD_CAT_ID   = 68137
ELEMENT_SET_NO = 999
REV_AT_EPOCH   = 293
BSTAR          = .24623265E-4
MEAN_MOTION_DOT = -.116E-5
MEAN_MOTION_DDOT = 0

CCSDS_OMM_VERS = 2.0
CREATION_DATE  = 
ORIGINATOR     = 

OBJECT_NAME    = CZ-8A R/B
OBJECT_ID      = 2026-047K
CENTER_NAME    = EARTH
REF_FRAME      = TEME
TIME_SYSTEM    = UTC
MEAN_ELEMENT_THEORY = SGP/SGP4

EPOCH          = 2026-04-05T13:49:36.649632
MEAN_MOTION    = 14.12233873
ECCENTRICITY   = .0044772
INCLINATION    = 49.9532
RA_OF_ASC_NODE = 319.4994
ARG_OF_PERICENTER = 230.5742
MEAN_ANOMALY   = 129.1198

EPHEMERIS_TYPE = 0
CLASSIFICATION_TYPE = U
NORAD_CAT_ID   = 68138
ELEMENT_SET_NO = 999
REV_AT_EPOCH   = 335
BSTAR          = .14271E-3
MEAN_MOTION_DOT = .112E-5
MEAN_MOTION_DDOT = 0

CCSDS_OMM_VERS = 2.0
CREATION_DATE  = 
ORIGINATOR     = 

OBJECT_NAME    = SHIYAN-30 03
OBJECT_ID      = 2026-048A
CENTER_NAME    = EARTH
REF_FRAME      = TEME
TIME_SYSTEM    = UTC
MEAN_ELEMENT_THEORY = SGP/SGP4

EPOCH          = 2026-04-05T03:24:54.841824
MEAN_MOTION    = 14.91781472
ECCENTRICITY   = .0002452
INCLINATION    = 35.0013
RA_OF_ASC_NODE = 345.5428
ARG_OF_PERICENTER = 74.1012
MEAN_ANOMALY   = 285.9963

EPHEMERIS_TYPE = 0
CLASSIFICATION_TYPE = U
NORAD_CAT_ID   = 68139
ELEMENT_SET_NO = 999
REV_AT_EPOCH   = 345
BSTAR          = .36610133E-3
MEAN_MOTION_DOT = .3735E-4
MEAN_MOTION_DDOT = 0

CCSDS_OMM_VERS = 2.0
CREATION_DATE  = 
ORIGINATOR     = 

OBJECT_NAME    = SHIYAN-30 04
OBJECT_ID      = 2026-048B
CENTER_NAME    = EARTH
REF_FRAME      = TEME
TIME_SYSTEM    = UTC
MEAN_ELEMENT_THEORY = SGP/SGP4

EPOCH          = 2026-04-05T03:25:54.924384
MEAN_MOTION    = 14.91778905
ECCENTRICITY   = .00009612
INCLINATION    = 34.9928
RA_OF_ASC_NODE = 345.5399
ARG_OF_PERICENTER = 86.6451
MEAN_ANOMALY   = 273.4364

EPHEMERIS_TYPE = 0
CLASSIFICATION_TYPE = U
NORAD_CAT_ID   = 68140
ELEMENT_SET_NO = 999
REV_AT_EPOCH   = 345
BSTAR          = .35093441E-3
MEAN_MOTION_DOT = .3579E-4
MEAN_MOTION_DDOT = 0

CCSDS_OMM_VERS = 2.0
CREATION_DATE  = 
ORIGINATOR     = 

OBJECT_NAME    = CZ-2D R/B
OBJECT_ID      = 2026-048C
CENTER_NAME    = EARTH
REF_FRAME      = TEME
TIME_SYSTEM    = UTC
MEAN_ELEMENT_THEORY = SGP/SGP4

EPOCH          = 2026-04-05T10:04:21.262656
MEAN_MOTION    = 14.95599375
ECCENTRICITY   = .0015973
INCLINATION    = 35.1310
RA_OF_ASC_NODE = 343.4669
ARG_OF_PERICENTER = 200.8427
MEAN_ANOMALY   = 159.1631

EPHEMERIS_TYPE = 0
CLASSIFICATION_TYPE = U
NORAD_CAT_ID   = 68141
ELEMENT_SET_NO = 999
REV_AT_EPOCH   = 350
BSTAR          = .20894E-3
MEAN_MOTION_DOT = .234E-4
MEAN_MOTION_DDOT = 0

CCSDS_OMM_VERS = 2.0
CREATION_DATE  = 
ORIGINATOR     = 

OBJECT_NAME    = STARLINK-36604
OBJECT_ID      = 2026-049A
CENTER_NAME    = EARTH
REF_FRAME      = TEME
TIME_SYSTEM    = UTC
MEAN_ELEMENT_THEORY = SGP/SGP4

EPOCH          = 2026-04-05T12:36:08.447328
MEAN_MOTION    = 15.75318331
ECCENTRICITY   = .0001502
INCLINATION    = 97.2843
RA_OF_ASC_NODE = 116.1104
ARG_OF_PERICENTER = 165.3601
MEAN_ANOMALY   = 194.7708

EPHEMERIS_TYPE = 0
CLASSIFICATION_TYPE = U
NORAD_CAT_ID   = 68142
ELEMENT_SET_NO = 999
REV_AT_EPOCH   = 364
BSTAR          = .17292E-2
MEAN_MOTION_DOT = .267511E-2
MEAN_MOTION_DDOT = 0

CCSDS_OMM_VERS = 2.0
CREATION_DATE  = 
ORIGINATOR     = 

OBJECT_NAME    = STARLINK-36995
OBJECT_ID      = 2026-049B
CENTER_NAME    = EARTH
REF_FRAME      = TEME
TIME_SYSTEM    = UTC
MEAN_ELEMENT_THEORY = SGP/SGP4

EPOCH          = 2026-04-05T12:29:31.759872
MEAN_MOTION    = 15.75258716
ECCENTRICITY   = .0001488
INCLINATION    = 97.2843
RA_OF_ASC_NODE = 116.1160
ARG_OF_PERICENTER = 92.9985
MEAN_ANOMALY   = 267.1451

EPHEMERIS_TYPE = 0
CLASSIFICATION_TYPE = U
NORAD_CAT_ID   = 68143
ELEMENT_SET_NO = 999
REV_AT_EPOCH   = 364
BSTAR          = .76227E-4
MEAN_MOTION_DOT = .11289E-3
MEAN_MOTION_DDOT = 0

CCSDS_OMM_VERS = 2.0
CREATION_DATE  = 
ORIGINATOR     = 

OBJECT_NAME    = STARLINK-37020
OBJECT_ID      = 2026-049C
CENTER_NAME    = EARTH
REF_FRAME      = TEME
TIME_SYSTEM    = UTC
MEAN_ELEMENT_THEORY = SGP/SGP4

EPOCH          = 2026-04-05T06:00:02.000160
MEAN_MOTION    = 15.75209844
ECCENTRICITY   = .00012932
INCLINATION    = 97.2845
RA_OF_ASC_NODE = 115.8565
ARG_OF_PERICENTER = 89.6447
MEAN_ANOMALY   = 231.6197

EPHEMERIS_TYPE = 0
CLASSIFICATION_TYPE = U
NORAD_CAT_ID   = 68144
ELEMENT_SET_NO = 999
REV_AT_EPOCH   = 489
BSTAR          = .86935817E-4
MEAN_MOTION_DOT = .12868E-3
MEAN_MOTION_DDOT = 0

CCSDS_OMM_VERS = 2.0
CREATION_DATE  = 
ORIGINATOR     = 

OBJECT_NAME    = STARLINK-36244
OBJECT_ID      = 2026-049D
CENTER_NAME    = EARTH
REF_FRAME      = TEME
TIME_SYSTEM    = UTC
MEAN_ELEMENT_THEORY = SGP/SGP4

EPOCH          = 2026-04-05T12:49:21.747936
MEAN_MOTION    = 15.75248403
ECCENTRICITY   = .0001673
INCLINATION    = 97.2847
RA_OF_ASC_NODE = 116.0967
ARG_OF_PERICENTER = 86.2896
MEAN_ANOMALY   = 273.8561

EPHEMERIS_TYPE = 0
CLASSIFICATION_TYPE = U
NORAD_CAT_ID   = 68145
ELEMENT_SET_NO = 999
REV_AT_EPOCH   = 364
BSTAR          = .68939E-3
MEAN_MOTION_DOT = .104225E-2
MEAN_MOTION_DDOT = 0

CCSDS_OMM_VERS = 2.0
CREATION_DATE  = 
ORIGINATOR     = 

OBJECT_NAME    = STARLINK-36980
OBJECT_ID      = 2026-049E
CENTER_NAME    = EARTH
REF_FRAME      = TEME
TIME_SYSTEM    = UTC
MEAN_ELEMENT_THEORY = SGP/SGP4

EPOCH          = 2026-04-05T12:03:50.268960
MEAN_MOTION    = 15.80906435
ECCENTRICITY   = .0001279
INCLINATION    = 97.2845
RA_OF_ASC_NODE = 116.1410
ARG_OF_PERICENTER = 79.6946
MEAN_ANOMALY   = 280.4466

EPHEMERIS_TYPE = 0
CLASSIFICATION_TYPE = U
NORAD_CAT_ID   = 68146
ELEMENT_SET_NO = 999
REV_AT_EPOCH   = 364
BSTAR          = .7143E-3
MEAN_MOTION_DOT = .139463E-2
MEAN_MOTION_DDOT = 0

CCSDS_OMM_VERS = 2.0
CREATION_DATE  = 
ORIGINATOR     = 

OBJECT_NAME    = STARLINK-37055
OBJECT_ID      = 2026-049F
CENTER_NAME    = EARTH
REF_FRAME      = TEME
TIME_SYSTEM    = UTC
MEAN_ELEMENT_THEORY = SGP/SGP4

EPOCH          = 2026-04-05T12:06:00.052128
MEAN_MOTION    = 15.80931100
ECCENTRICITY   = .0000777
INCLINATION    = 97.2846
RA_OF_ASC_NODE = 116.1386
ARG_OF_PERICENTER = 106.4209
MEAN_ANOMALY   = 253.7145

EPHEMERIS_TYPE = 0
CLASSIFICATION_TYPE = U
NORAD_CAT_ID   = 68147
ELEMENT_SET_NO = 999
REV_AT_EPOCH   = 364
BSTAR          = .11097E-2
MEAN_MOTION_DOT = .218992E-2
MEAN_MOTION_DDOT = 0

CCSDS_OMM_VERS = 2.0
CREATION_DATE  = 
ORIGINATOR     = 

OBJECT_NAME    = STARLINK-36981
OBJECT_ID      = 2026-049G
CENTER_NAME    = EARTH
REF_FRAME      = TEME
TIME_SYSTEM    = UTC
MEAN_ELEMENT_THEORY = SGP/SGP4

EPOCH          = 2026-04-05T12:01:40.254240
MEAN_MOTION    = 15.80918090
ECCENTRICITY   = .0000969
INCLINATION    = 97.2847
RA_OF_ASC_NODE = 116.1429
ARG_OF_PERICENTER = 102.8391
MEAN_ANOMALY   = 257.2986

EPHEMERIS_TYPE = 0
CLASSIFICATION_TYPE = U
NORAD_CAT_ID   = 68148
ELEMENT_SET_NO = 999
REV_AT_EPOCH   = 364
BSTAR          = .93037E-3
MEAN_MOTION_DOT = .182697E-2
MEAN_MOTION_DDOT = 0

