GUOWANG GROUP 20 OBJECT*
1 68137U 26047J   26092.70556402 -.00000116  00000+0  24623-4 0  9991
2 68137  50.0058 333.1317 0000669 182.6269 177.4625 13.87066479  2938
CZ-8A R/B               
1 68138U 26047K   26095.57611863  .00000112  00000+0  14271-3 0  9995
2 68138  49.9532 319.4994 0044772 230.5742 129.1198 14.12233873  3352
SHIYAN-30 03            
1 68139U 26048A   26095.14230141  .00003735  00000+0  36610-3 0  9991
2 68139  35.0013 345.5428 0002452  74.1012 285.9963 14.91781472  3458
SHIYAN-30 04            
1 68140U 26048B   26095.14299681  .00003579  00000+0  35093-3 0  9997
2 68140  34.9928 345.5399 0000961  86.6451 273.4364 14.91778905  3452
CZ-2D R/B               
1 68141U 26048C   26095.41969054  .00002340  00000+0  20894-3 0  9994
2 68141  35.1310 343.4669 0015973 200.8427 159.1631 14.95599375  3509
STARLINK-36604          
1 68142U 26049A   26095.52509777  .00267511  00000+0  17292-2 0  9990
2 68142  97.2843 116.1104 0001502 165.3601 194.7708 15.75318331  3646
STARLINK-36995          
1 68143U 26049B   26095.52050648  .00011289  00000+0  76227-4 0  9993
2 68143  97.2843 116.1160 0001488  92.9985 267.1451 15.75258716  3642
STARLINK-37020          
1 68144U 26049C   26095.25002315  .00012868  00000+0  86936-4 0  9994
2 68144  97.2845 115.8565 0001293  89.6447 231.6197 15.75209844  4899
STARLINK-36244          
1 68145U 26049D   26095.53427949  .00104225  00000+0  68939-3 0  9991
2 68145  97.2847 116.0967 0001673  86.2896 273.8561 15.75248403  3643
STARLINK-36980          
1 68146U 26049E   26095.50266515  .00139463  00000+0  71430-3 0  9991
2 68146  97.2845 116.1410 0001279  79.6946 280.4466 15.80906435  3640
STARLINK-37055          
1 68147U 26049F   26095.50416727  .00218992  00000+0  11097-2 0  9991
2 68147  97.2846 116.1386 0000777 106.4209 253.7145 15.80931100  3641
STARLINK-36981          
1 68148U 26049G   26095.50116035  .00182697  00000+0  93037-3 0  9998
2 68148  97.2847 116.1429 0000969 102.8391 257.2986 15.80918090  3641
